STARLINK-30861
1 58230U 23171A   26061.16668981  .01836461  00000+0  98301-1 0  9992
2 58230  43.0005 326.7989 0002107 303.4422  95.9196 15.10883278  5810
